[{"OBJECT_NAME":"ONEWEB-0378","OBJECT_ID":"2021-090AB","EPOCH":"2026-03-09T15:20:32.939232","MEAN_MOTION":13.20769988,"ECCENTRICITY":0.0001502,"INCLINATION":87.9161,"RA_OF_ASC_NODE":294.3226,"ARG_OF_PERICENTER":82.4102,"MEAN_ANOMALY":277.7202,"EPHEMERIS_TYPE":0,"CLASSIFICATION_TYPE":"U","NORAD_CAT_ID":49304,"ELEMENT_SET_NO":999,"REV_AT_EPOCH":21664,"BSTAR":0.00014225,"MEAN_MOTION_DOT":7.1e-7,"MEAN_MOTION_DDOT":0},{"OBJECT_NAME":"PEGASUS DEB","OBJECT_ID":"1994-029YW","EPOCH":"2026-03-09T00:40:55.338528","MEAN_MOTION":14.11561087,"ECCENTRICITY":0.04478792,"INCLINATION":81.4462,"RA_OF_ASC_NODE":93.0128,"ARG_OF_PERICENTER":250.1381,"MEAN_ANOMALY":105.1008,"EPHEMERIS_TYPE":0,"CLASSIFICATION_TYPE":"U","NORAD_CAT_ID":24594,"ELEMENT_SET_NO":999,"REV_AT_EPOCH":49351,"BSTAR":0.0015343637,"MEAN_MOTION_DOT":7.284e-5,"MEAN_MOTION_DDOT":0}]
